MACSAT 2 (M 2)          
1 20608U 90043B   09171.78295001  .00000126  00000-0  16396-4 0  7336
2 20608  89.7384  81.8733 0091785 254.0485 105.0606 14.71966437 23882
TUBSAT A                
1 21577U 91050D   09171.44845437  .00000014  00000-0  18743-4 0  5060
2 21577  98.4636 118.3657 0007080  44.6465 315.5303 14.38533074940679
S80/T                   
1 22078U 92052C   09170.61667571 -.00000037  00000-0  10000-3 0  7200
2 22078  66.0871 315.0920 0016694 278.6064  81.3047 12.86725738792053
HEALTHSAT 1             
1 22827U 93061E   09171.04996809 -.00000005  00000-0  14410-4 0  2840
2 22827  98.4247 126.2989 0008317 222.6290 137.4267 14.30162456820637
TUBSAT B                
1 22970U 94003B   09171.09746870  .00000051  00000-0  10000-3 0   873
2 22970  82.5603 147.5966 0014635 237.9097 122.0576 13.16915598740361
CERISE                  
1 23606U 95033B   09171.38819310  .00000227  00000-0  33532-4 0  8112
2 23606  98.2413 292.0725 0007862  97.0535 263.1562 14.84863166752348
UPM/LBSAT               
1 23607U 95033C   09171.20387075 -.00000041  00000-0  17109-5 0  1281
2 23607  98.1902 257.0189 0005071 241.4901 118.5852 14.74749155749495
FAISAT 2V               
1 24954U 97052B   09171.90151676  .00000069  00000-0  50845-4 0  5403
2 24954  82.9198 312.6263 0040562 118.2546 242.2715 13.79649520591183
MUBLCOM                 
1 25736U 99026B   09171.01125224  .00000129  00000-0  48388-4 0  7618
2 25736  97.7663 101.9990 0006872  53.0753 307.1056 14.44561028531206
RUBIN-3 & SL-8 R/B      
1 27561U 02054C   09171.98816449 -.00000055  00000-0 -25930-5 0  7049
2 27561  97.9411   7.2366 0046533 229.4306 130.2851 14.53763588348066
APRIZESAT 2 (LATINSAT D)
1 28366U 04025A   09171.48928302  .00000003  00000-0  14213-4 0  3947
2 28366  98.0861 168.0562 0109885 156.9533 203.6633 14.35574807260702
SAUDICOMSAT 1           
1 28369U 04025D   09171.09937201  .00000024  00000-0  16733-4 0  4229
2 28369  98.0183 209.2243 0034969  44.6551 315.7470 14.50639705263375
SAUDICOMSAT 2           
1 28370U 04025E   09171.07634468 -.00000025  00000-0  45382-5 0  4278
2 28370  98.0238 194.5024 0060238  76.7711 284.0199 14.45737528262486
APRIZESAT 1 (LATINSAT C)
1 28372U 04025G   09172.03321490  .00000069  00000-0  29374-4 0  4117
2 28372  98.0167 202.3067 0048358  57.1959 303.3877 14.48167042263053
NANOSAT-1               
1 28493U 04049B   09168.93389263 -.00000054  00000-0 -44615-6 0  3744
2 28493  98.2617 130.1782 0003802 248.6170 111.4653 14.70310968241270
SAUDICOMSAT 7           
1 31119U 07012C   09171.17989568  .00000384  00000-0  88724-4 0  6643
2 31119  97.9935 233.3745 0061238 248.4349 111.0273 14.59442806115937
SAUDICOMSAT 6           
1 31121U 07012E   09171.71367281  .00000363  00000-0  89075-4 0  6678
2 31121  97.9904 229.9700 0078186 258.6976 100.5395 14.56317941115775
SAUDICOMSAT 5           
1 31124U 07012H   09172.10331328  .00000398  00000-0  89121-4 0  6735
2 31124  97.9979 236.3940 0052591 239.8196 119.7756 14.61025115116190
SAUDICOMSAT 3           
1 31125U 07012J   09171.60226276  .00000409  00000-0  88749-4 0  6766
2 31125  98.0001 237.8991 0044331 235.7727 123.9271 14.62566773116245
SAUDICOMSAT 4           
1 31127U 07012L   09171.71253753  .00000378  00000-0  89803-4 0  6701
2 31127  97.9933 232.0529 0069399 252.4597 106.8970 14.57962753115893
